start=new Date('2021-08-28T00:00:00.000Z').valueOf();
sats=[{"OBJECT_TYPE":"PAYLOAD","SITE":"AFETR","COUNTRY_CODE":"US","INCLINATION":"53.0430","APOAPSIS":"352.646","EPOCH":"2021-08-27T05:59:00.125664","GP_ID":"183530358","TLE_LINE1":"1 47631U 21012M   21239.24930701  .00025999  00000-0  18886-3 0  9998","MEAN_ELEMENT_THEORY":"SGP4","OBJECT_ID":"2021-012M","TIME_SYSTEM":"UTC","MEAN_ANOMALY":"342.1006","ELEMENT_SET_NO":"999","PERIOD":"91.532","SEMIMAJOR_AXIS":"6727.847","ARG_OF_PERICENTER":"18.0165","MEAN_MOTION_DOT":"0.00025999","RA_OF_ASC_NODE":"226.6259","REF_FRAME":"TEME","LAUNCH_DATE":"2021-02-16","TLE_LINE2":"2 47631  53.0430 226.6259 0004360  18.0165 342.1006 15.73216754 31522","BSTAR":"0.00018886000000","FILE":"3103885","RCS_SIZE":"LARGE","PERIAPSIS":"346.779","CENTER_NAME":"EARTH","EPHEMERIS_TYPE":"0","ECCENTRICITY":"0.00043600","MEAN_MOTION_DDOT":"0.0000000000000","DECAY_DATE":null,"NORAD_CAT_ID":"47631","MEAN_MOTION":"15.73216754","REV_AT_EPOCH":"3152","CLASSIFICATION_TYPE":"U","OBJECT_NAME":"STARLINK-1985"},{"BSTAR":"0.00029451000000","TLE_LINE2":"2 47632  53.0425 224.0903 0004408  12.1853 347.9270 15.73215370 31605","FILE":"3104038","PERIAPSIS":"346.751","RCS_SIZE":"LARGE","EPHEMERIS_TYPE":"0","CENTER_NAME":"EARTH","LAUNCH_DATE":"2021-02-16","MEAN_MOTION_DDOT":"0.0000000000000","DECAY_DATE":null,"ECCENTRICITY":"0.00044080","MEAN_MOTION":"15.73215370","NORAD_CAT_ID":"47632","REV_AT_EPOCH":"3160","OBJECT_NAME":"STARLINK-1992","CLASSIFICATION_TYPE":"U","COUNTRY_CODE":"US","SITE":"AFETR","OBJECT_TYPE":"PAYLOAD","TLE_LINE1":"1 47632U 21012N   21239.75685624  .00040964  00000-0  29451-3 0  9995","GP_ID":"183557872","OBJECT_ID":"2021-012N","TIME_SYSTEM":"UTC","MEAN_ELEMENT_THEORY":"SGP4","EPOCH":"2021-08-27T18:09:52.379136","INCLINATION":"53.0425","APOAPSIS":"352.682","SEMIMAJOR_AXIS":"6727.851","ARG_OF_PERICENTER":"12.1853","PERIOD":"91.532","MEAN_ANOMALY":"347.9270","ELEMENT_SET_NO":"999","RA_OF_ASC_NODE":"224.0903","REF_FRAME":"TEME","MEAN_MOTION_DOT":"0.00040964"},{"DECAY_DATE":null,"MEAN_MOTION_DDOT":"0.0000000000000","ECCENTRICITY":"0.00008260","FILE":"3103885","EPHEMERIS_TYPE":"0","RCS_SIZE":"LARGE","PERIAPSIS":"546.639","CENTER_NAME":"EARTH","TLE_LINE2":"2 47633  53.0544 302.2003 0000826  89.2826 270.8258 15.06400900 30524","BSTAR":"0.00007365800000","LAUNCH_DATE":"2021-02-16","OBJECT_NAME":"STARLINK-2009","CLASSIFICATION_TYPE":"U","REV_AT_EPOCH":"3052","NORAD_CAT_ID":"47633","MEAN_MOTION":"15.06400900","MEAN_ELEMENT_THEORY":"SGP4","OBJECT_ID":"2021-012P","TIME_SYSTEM":"UTC","GP_ID":"183531333","TLE_LINE1":"1 47633U 21012P   21239.46895228  .00000816  00000-0  73658-4 0  9998","APOAPSIS":"547.783","INCLINATION":"53.0544","EPOCH":"2021-08-27T11:15:17.476992","COUNTRY_CODE":"US","OBJECT_TYPE":"PAYLOAD","SITE":"AFETR","MEAN_MOTION_DOT":"0.00000816","RA_OF_ASC_NODE":"302.2003","REF_FRAME":"TEME","PERIOD":"95.592","ARG_OF_PERICENTER":"89.2826","SEMIMAJOR_AXIS":"6925.346","MEAN_ANOMALY":"270.8258","ELEMENT_SET_NO":"999"},{"DECAY_DATE":null,"MEAN_MOTION_DDOT":"0.0000000000000","ECCENTRICITY":"0.00009730","FILE":"3104038","RCS_SIZE":"LARGE","PERIAPSIS":"546.515","EPHEMERIS_TYPE":"0","CENTER_NAME":"EARTH","TLE_LINE2":"2 47634  53.0562 301.4007 0000973  88.7870 271.3231 15.06407915 30526","BSTAR":"0.00012239000000","LAUNCH_DATE":"2021-02-16","OBJECT_NAME":"STARLINK-2010","CLASSIFICATION_TYPE":"U","REV_AT_EPOCH":"3052","NORAD_CAT_ID":"47634","MEAN_MOTION":"15.06407915","MEAN_ELEMENT_THEORY":"SGP4","OBJECT_ID":"2021-012Q","TIME_SYSTEM":"UTC","GP_ID":"183556374","TLE_LINE1":"1 47634U 21012Q   21239.64586367  .00001543  00000-0  12239-3 0  9995","APOAPSIS":"547.863","INCLINATION":"53.0562","EPOCH":"2021-08-27T15:30:02.621088","COUNTRY_CODE":"US","OBJECT_TYPE":"PAYLOAD","SITE":"AFETR","MEAN_MOTION_DOT":"0.00001543","RA_OF_ASC_NODE":"301.4007","REF_FRAME":"TEME","PERIOD":"95.592","SEMIMAJOR_AXIS":"6925.324","ARG_OF_PERICENTER":"88.7870","MEAN_ANOMALY":"271.3231","ELEMENT_SET_NO":"999"},{"FILE":"3103922","RCS_SIZE":"LARGE","EPHEMERIS_TYPE":"0","PERIAPSIS":"346.690","CENTER_NAME":"EARTH","TLE_LINE2":"2 47635  53.0429 225.6722 0004617  18.5272 341.5913 15.73187308 31057","BSTAR":"0.00003629800000","LAUNCH_DATE":"2021-02-16","DECAY_DATE":null,"MEAN_MOTION_DDOT":"0.0000000000000","ECCENTRICITY":"0.00046170","REV_AT_EPOCH":"3105","NORAD_CAT_ID":"47635","MEAN_MOTION":"15.73187308","OBJECT_NAME":"STARLINK-2012","CLASSIFICATION_TYPE":"U","COUNTRY_CODE":"US","OBJECT_TYPE":"PAYLOAD","SITE":"AFETR","MEAN_ELEMENT_THEORY":"SGP4","OBJECT_ID":"2021-012R","TIME_SYSTEM":"UTC","GP_ID":"183533146","TLE_LINE1":"1 47635U 21012R   21239.43887876  .00004472  00000-0  36298-4 0  9998","INCLINATION":"53.0429","APOAPSIS":"352.903","EPOCH":"2021-08-27T10:31:59.124864","PERIOD":"91.534","SEMIMAJOR_AXIS":"6727.931","ARG_OF_PERICENTER":"18.5272","ELEMENT_SET_NO":"999","MEAN_ANOMALY":"341.5913","MEAN_MOTION_DOT":"0.00004472","RA_OF_ASC_NODE":"225.6722","REF_FRAME":"TEME"},{"OBJECT_TYPE":"PAYLOAD","SITE":"AFETR","COUNTRY_CODE":"US","INCLINATION":"53.0536","APOAPSIS":"552.698","EPOCH":"2021-08-27T15:11:29.478048","MEAN_ELEMENT_THEORY":"SGP4","TIME_SYSTEM":"UTC","OBJECT_ID":"2021-012S","GP_ID":"183557358","TLE_LINE1":"1 47636U 21012S   21239.63298007  .00000543  00000-0  55483-4 0  9995","ELEMENT_SET_NO":"999","MEAN_ANOMALY":"200.6268","PERIOD":"95.592","SEMIMAJOR_AXIS":"6925.353","ARG_OF_PERICENTER":"159.5039","MEAN_MOTION_DOT":"0.00000543","RA_OF_ASC_NODE":"281.4475","REF_FRAME":"TEME","LAUNCH_DATE":"2021-02-16","FILE":"3104038","RCS_SIZE":"LARGE","CENTER_NAME":"EARTH","PERIAPSIS":"541.737","EPHEMERIS_TYPE":"0","TLE_LINE2":"2 47636  53.0536 281.4475 0007914 159.5039 200.6268 15.06398675 30809","BSTAR":"0.00005548300000","ECCENTRICITY":"0.00079140","DECAY_DATE":null,"MEAN_MOTION_DDOT":"0.0000000000000","REV_AT_EPOCH":"3080","NORAD_CAT_ID":"47636","MEAN_MOTION":"15.06398675","CLASSIFICATION_TYPE":"U","OBJECT_NAME":"STARLINK-2013"},{"MEAN_MOTION":"15.06390074","NORAD_CAT_ID":"47637","REV_AT_EPOCH":"3081","CLASSIFICATION_TYPE":"U","OBJECT_NAME":"STARLINK-2014","LAUNCH_DATE":"2021-02-16","BSTAR":"0.00005229800000","TLE_LINE2":"2 47637  53.0548 281.5776 0000079 107.0405 253.0592 15.06390074 30816","PERIAPSIS":"547.189","FILE":"3104038","RCS_SIZE":"LARGE","CENTER_NAME":"EARTH","EPHEMERIS_TYPE":"0","ECCENTRICITY":"0.00000790","MEAN_MOTION_DDOT":"0.0000000000000","DECAY_DATE":null,"ELEMENT_SET_NO":"999","MEAN_ANOMALY":"253.0592","SEMIMAJOR_AXIS":"6925.379","ARG_OF_PERICENTER":"107.0405","PERIOD":"95.593","RA_OF_ASC_NODE":"281.5776","REF_FRAME":"TEME","MEAN_MOTION_DOT":"0.00000498","SITE":"AFETR","OBJECT_TYPE":"PAYLOAD","COUNTRY_CODE":"US","EPOCH":"2021-08-27T14:29:01.218048","APOAPSIS":"547.299","INCLINATION":"53.0548","TLE_LINE1":"1 47637U 21012T   21239.60348632  .00000498  00000-0  52298-4 0  9993","GP_ID":"183556125","OBJECT_ID":"2021-012T","TIME_SYSTEM":"UTC","MEAN_ELEMENT_THEORY":"SGP4"},{"SITE":"AFETR","OBJECT_TYPE":"PAYLOAD","COUNTRY_CODE":"US","EPOCH":"2021-08-27T10:33:17.485344","INCLINATION":"53.0413","APOAPSIS":"352.621","OBJECT_ID":"2021-012U","TIME_SYSTEM":"UTC","MEAN_ELEMENT_THEORY":"SGP4","TLE_LINE1":"1 47638U 21012U   21239.43978571  .00000351  00000-0  69573-5 0  9999","GP_ID":"183533153","ELEMENT_SET_NO":"999","MEAN_ANOMALY":"353.5932","SEMIMAJOR_AXIS":"6727.899","ARG_OF_PERICENTER":"6.5140","PERIOD":"91.533","RA_OF_ASC_NODE":"225.6594","REF_FRAME":"TEME","MEAN_MOTION_DOT":"0.00000351","LAUNCH_DATE":"2021-02-16","FILE":"3103923","PERIAPSIS":"346.907","RCS_SIZE":"LARGE","CENTER_NAME":"EARTH","EPHEMERIS_TYPE":"0","BSTAR":"0.00000695730000","TLE_LINE2":"2 47638  53.0413 225.6594 0004247   6.5140 353.5932 15.73198695 31055","ECCENTRICITY":"0.00042470","DECAY_DATE":null,"MEAN_MOTION_DDOT":"0.0000000000000","REV_AT_EPOCH":"3105","MEAN_MOTION":"15.73198695","NORAD_CAT_ID":"47638","CLASSIFICATION_TYPE":"U","OBJECT_NAME":"STARLINK-2015"},{"CLASSIFICATION_TYPE":"U","OBJECT_NAME":"STARLINK-2016","REV_AT_EPOCH":"3075","NORAD_CAT_ID":"47639","MEAN_MOTION":"15.06395460","ECCENTRICITY":"0.00005320","DECAY_DATE":null,"MEAN_MOTION_DDOT":"0.0000000000000","LAUNCH_DATE":"2021-02-16","CENTER_NAME":"EARTH","FILE":"3103885","RCS_SIZE":"LARGE","PERIAPSIS":"546.859","EPHEMERIS_TYPE":"0","TLE_LINE2":"2 47639  53.0540 282.5685 0000532 113.4953 246.6092 15.06395460 30753","BSTAR":"-0.00005725300000","MEAN_MOTION_DOT":"-0.00001134","RA_OF_ASC_NODE":"282.5685","REF_FRAME":"TEME","MEAN_ANOMALY":"246.6092","ELEMENT_SET_NO":"999","PERIOD":"95.592","SEMIMAJOR_AXIS":"6925.362","ARG_OF_PERICENTER":"113.4953","APOAPSIS":"547.596","INCLINATION":"53.0540","EPOCH":"2021-08-27T09:10:32.986272","MEAN_ELEMENT_THEORY":"SGP4","TIME_SYSTEM":"UTC","OBJECT_ID":"2021-012V","GP_ID":"183530359","TLE_LINE1":"1 47639U 21012V   21239.38232623 -.00001134  00000-0 -57253-4 0  9998","OBJECT_TYPE":"PAYLOAD","SITE":"AFETR","COUNTRY_CODE":"US"},{"OBJECT_NAME":"STARLINK-2018","CLASSIFICATION_TYPE":"U","REV_AT_EPOCH":"3053","MEAN_MOTION":"15.06396959","NORAD_CAT_ID":"47640","DECAY_DATE":null,"MEAN_MOTION_DDOT":"0.0000000000000","ECCENTRICITY":"0.00011790","RCS_SIZE":"LARGE","FILE":"3104038","PERIAPSIS":"546.406","CENTER_NAME":"EARTH","EPHEMERIS_TYPE":"0","BSTAR":"0.00007875900000","TLE_LINE2":"2 47640  53.0560 301.4159 0001179  87.1496 272.9628 15.06396959 30538","LAUNCH_DATE":"2021-02-16","RA_OF_ASC_NODE":"301.4159","REF_FRAME":"TEME","MEAN_MOTION_DOT":"0.00000892","SEMIMAJOR_AXIS":"6925.358","ARG_OF_PERICENTER":"87.1496","PERIOD":"95.592","ELEMENT_SET_NO":"999","MEAN_ANOMALY":"272.9628","TIME_SYSTEM":"UTC","OBJECT_ID":"2021-012W","MEAN_ELEMENT_THEORY":"SGP4","TLE_LINE1":"1 47640U 21012W   21239.64218711  .00000892  00000-0  78759-4 0  9993","GP_ID":"183557873","EPOCH":"2021-08-27T15:24:44.966304","APOAPSIS":"548.039","INCLINATION":"53.0560","COUNTRY_CODE":"US","SITE":"AFETR","OBJECT_TYPE":"PAYLOAD"}];
